CSS (TIANHE)            
1 48274U 21035A   26191.66389666  .00001391  00000+0  22297-4 0  9994
2 48274  41.4687 179.2973 0002646 286.4983  73.5564 15.58017309296830
